NORAD_CAT_ID,OBJECT_NAME,OBJECT_TYPE,EPOCH,MEAN_MOTION,ECCENTRICITY,INCLINATION,RA_OF_ASC_NODE,ARG_OF_PERICENTER,MEAN_ANOMALY,BSTAR,MEAN_MOTION_DOT,MEAN_MOTION_DDOT,TLE_LINE0,TLE_LINE1,TLE_LINE2,SEMIMAJOR_AXIS,PERIOD,APOGEE,PERIGEE,DECAYED
49766.0,STARLINK-3190,PAYLOAD,2022-11-07 16:44:47,15.08837434,0.0002048,53.216,206.9075,42.7832,317.3319,0.00039552,6.012e-05,0.0,0 STARLINK-3190,1 49766U 21115AU  22311.69776820  .00006012  00000-0  39552-3 0  9992,2 49766  53.2160 206.9075 0002048  42.7832 317.3319 15.08837434 51804,6917.888000000001,95.438,541.17,538.336,0.0
49766.0,STARLINK-3190,PAYLOAD,2022-11-08 02:17:05,15.0884557,0.0001969,53.216,205.1229,41.1233,318.9907,0.00045958,7.035e-05,0.0,0 STARLINK-3190,1 49766U 21115AU  22312.09520633  .00007035  00000-0  45958-3 0  9999,2 49766  53.2160 205.1229 0001969  41.1233 318.9907 15.08845570 52974,6917.863,95.437,541.09,538.366,0.0
49766.0,STARLINK-3190,PAYLOAD,2022-11-08 10:14:00,15.08863649,0.0001761,53.2152,203.6358,34.1758,325.9347,0.00061404,9.504e-05,0.0,0 STARLINK-3190,1 49766U 21115AU  22312.42639648  .00009504  00000-0  61404-3 0  9990,2 49766  53.2152 203.6358 0001761  34.1758 325.9347 15.08863649 53025,6917.808000000001,95.436,540.891,538.455,0.0
49766.0,STARLINK-3190,PAYLOAD,2022-11-08 16:35:32,15.08868101,0.0002093,53.2155,202.4471,42.5657,317.5497,0.00060719,9.396e-05,0.0,0 STARLINK-3190,1 49766U 21115AU  22312.69135304  .00009396  00000-0  60719-3 0  9996,2 49766  53.2155 202.4471 0002093  42.5657 317.5497 15.08868101 51952,6917.794,95.436,541.107,538.212,0.0
49766.0,STARLINK-3190,PAYLOAD,2022-11-09 02:07:50,15.08880066,0.0002027,53.215,200.6621,44.1074,316.008,0.00065769,0.00010206,0.0,0 STARLINK-3190,1 49766U 21115AU  22313.08878155  .00010206  00000-0  65769-3 0  9990,2 49766  53.2150 200.6621 0002027  44.1074 316.0080 15.08880066 52016,6917.7580000000025,95.435,541.025,538.221,0.0
49766.0,STARLINK-3190,PAYLOAD,2022-11-09 21:12:27,15.0886046,0.0001918,53.2147,197.0937,33.4586,326.6527,-5.103e-05,-1.101e-05,0.0,0 STARLINK-3190,1 49766U 21115AU  22313.88365378 -.00001101  00000-0 -51030-4 0  9999,2 49766  53.2147 197.0937 0001918  33.4586 326.6527 15.08860460 52130,6917.818,95.436,541.01,538.356,0.0
49766.0,STARLINK-3190,PAYLOAD,2022-11-10 01:58:37,15.08831053,0.0002053,53.2149,196.2019,38.6742,321.4397,-0.00082265,-0.00013354,0.0,0 STARLINK-3190,1 49766U 21115AU  22314.08237720 -.00013354  00000-0 -82265-3 0  9997,2 49766  53.2149 196.2019 0002053  38.6742 321.4397 15.08831053 53276,6917.908,95.438,541.193,538.352,0.0
49766.0,STARLINK-3190,PAYLOAD,2022-11-10 09:55:33,15.08825462,0.0002099,53.2151,194.7159,37.5368,322.5771,-0.00048188,-7.946e-05,0.0,0 STARLINK-3190,1 49766U 21115AU  22314.41358194 -.00007946  00000-0 -48188-3 0  9999,2 49766  53.2151 194.7159 0002099  37.5368 322.5771 15.08825462 52217,6917.925,95.438,541.242,538.3380000000002,0.0
49766.0,STARLINK-3190,PAYLOAD,2022-11-10 19:27:52,15.08826249,0.000196,53.2153,192.9309,38.6952,321.418,9.985e-05,1.301e-05,0.0,0 STARLINK-3190,1 49766U 21115AU  22314.81102749  .00001301  00000-0  99850-4 0  9996,2 49766  53.2153 192.9309 0001960  38.6952 321.4180 15.08826249 52275,6917.922,95.438,541.143,538.432,0.0
49766.0,STARLINK-3190,PAYLOAD,2022-11-11 01:49:25,15.08832099,0.0002009,53.2149,191.741,41.1703,318.944,0.00084361,0.00013161,0.0,0 STARLINK-3190,1 49766U 21115AU  22315.07599192  .00013161  00000-0  84361-3 0  9994,2 49766  53.2149 191.7410 0002009  41.1703 318.9440 15.08832099 53426,6917.905,95.438,541.159,538.38,0.0
49766.0,STARLINK-3190,PAYLOAD,2022-11-11 20:54:03,15.08835762,0.000205,53.2147,188.1725,42.493,317.6221,0.00044946,6.872e-05,0.0,0 STARLINK-3190,1 49766U 21115AU  22315.87087742  .00006872  00000-0  44946-3 0  9991,2 49766  53.2147 188.1725 0002050  42.4930 317.6221 15.08835762 53541,6917.893,95.438,541.177,538.34,0.0
49766.0,STARLINK-3190,PAYLOAD,2022-11-12 00:04:50,15.0883791,0.0002047,53.2149,187.5779,42.4825,317.6325,0.00046112,7.058e-05,0.0,0 STARLINK-3190,1 49766U 21115AU  22316.00335763  .00007058  00000-0  46112-3 0  9990,2 49766  53.2149 187.5779 0002047  42.4825 317.6325 15.08837910 52455,6917.887,95.438,541.168,538.336,0.0
49766.0,STARLINK-3190,PAYLOAD,2022-11-12 19:09:26,15.08860907,0.0001914,53.215,184.0075,42.4149,317.6991,0.0006758999999999,0.00010491,0.0,0 STARLINK-3190,1 49766U 21115AU  22316.79822834  .00010491  00000-0  67590-3 0  9994,2 49766  53.2150 184.0075 0001914  42.4149 317.6991 15.08860907 53686,6917.816,95.436,541.006,538.357,0.0
49766.0,STARLINK-3190,PAYLOAD,2022-11-12 22:20:13,15.08863998,0.0002076,53.2152,183.4129,39.757,320.3574,0.00066208,0.00010272,0.0,0 STARLINK-3190,1 49766U 21115AU  22316.93070627  .00010272  00000-0  66208-3 0  9997,2 49766  53.2152 183.4129 0002076  39.7570 320.3574 15.08863998 52598,6917.807,95.436,541.1080000000002,538.236,0.0
49766.0,STARLINK-3190,PAYLOAD,2022-11-13 01:30:59,15.0886017,0.0001793,53.2146,182.8233,42.7366,317.3765,0.00025324,3.747e-05,0.0,0 STARLINK-3190,1 49766U 21115AU  22317.06318498  .00003747  00000-0  25324-3 0  9996,2 49766  53.2146 182.8233 0001793  42.7366 317.3765 15.08860170 52612,6917.819,95.436,540.924,538.443,0.0
49766.0,STARLINK-3190,PAYLOAD,2022-11-13 19:00:14,15.08835522,0.0001779,53.2149,179.5487,44.8506,315.263,-8.7505e-05,-1.6800000000000002e-05,0.0,0 STARLINK-3190,1 49766U 21115AU  22317.79183371 -.00001680  00000-0 -87505-4 0  9992,2 49766  53.2149 179.5487 0001779  44.8506 315.2630 15.08835522 53838,6917.894,95.438,540.99,538.528,0.0
49766.0,STARLINK-3190,PAYLOAD,2022-11-14 07:43:20,15.08820616,0.0001864,53.2146,177.1701,43.7347,316.3793,0.00015143,2.121e-05,0.0,0 STARLINK-3190,1 49766U 21115AU  22318.32176317  .00002121  00000-0  15143-3 0  9991,2 49766  53.2146 177.1701 0001864  43.7347 316.3793 15.08820616 53913,6917.94,95.439,541.094,538.515,0.0
49766.0,STARLINK-3190,PAYLOAD,2022-11-15 07:34:07,15.08833259,0.0001916,53.2149,172.7098,45.0844,315.0304,0.00030699,4.6e-05,0.0,0 STARLINK-3190,1 49766U 21115AU  22319.31536968  .00004600  00000-0  30699-3 0  9990,2 49766  53.2149 172.7098 0001916  45.0844 315.0304 15.08833259 52955,6917.901,95.438,541.091,538.441,0.0
49766.0,STARLINK-3190,PAYLOAD,2022-11-15 20:17:13,15.08840093,0.000197,53.2148,170.3311,45.5736,314.5417,0.00037349,5.661e-05,0.0,0 STARLINK-3190,1 49766U 21115AU  22319.84529035  .00005661  00000-0  37349-3 0  9992,2 49766  53.2148 170.3311 0001970  45.5736 314.5417 15.08840093 53034,6917.88,95.438,541.1080000000002,538.382,0.0
49766.0,STARLINK-3190,PAYLOAD,2022-11-16 02:38:45,15.08846701,0.0002001,53.2146,169.1417,46.442,313.6738,0.00044696,6.834e-05,0.0,0 STARLINK-3190,1 49766U 21115AU  22320.11024903  .00006834  00000-0  44696-3 0  9994,2 49766  53.2146 169.1417 0002001  46.4420 313.6738 15.08846701 53073,6917.86,95.437,541.109,538.341,0.0
49766.0,STARLINK-3190,PAYLOAD,2022-11-16 20:07:59,15.08844216,0.0002077,53.2153,165.8702,47.6125,312.5043,0.00020093,2.911e-05,0.0,0 STARLINK-3190,1 49766U 21115AU  22320.83888886  .00002911  00000-0  20093-3 0  9998,2 49766  53.2153 165.8702 0002077  47.6125 312.5043 15.08844216 54290,6917.868,95.437,541.169,538.2959999999998,0.0
49766.0,STARLINK-3190,PAYLOAD,2022-11-17 07:15:42,15.08837914,0.0002057,53.2151,163.7888,47.3461,312.7704,3.5811e-05,2.82e-06,0.0,0 STARLINK-3190,1 49766U 21115AU  22321.30257105  .00000282  00000-0  35811-4 0  9999,2 49766  53.2151 163.7888 0002057  47.3461 312.7704 15.08837914 54369,6917.887,95.438,541.175,538.3290000000002,0.0
49766.0,STARLINK-3190,PAYLOAD,2022-11-17 13:37:14,15.08839923,0.0002068,53.2152,162.5992,47.6007,312.516,7.8214e-05,9.57e-06,0.0,0 STARLINK-3190,1 49766U 21115AU  22321.56753125  .00000957  00000-0  78214-4 0  9993,2 49766  53.2152 162.5992 0002068  47.6007 312.5160 15.08839923 53291,6917.880999999999,95.438,541.1759999999998,538.315,0.0
49766.0,STARLINK-3190,PAYLOAD,2022-11-17 19:58:47,15.08843519,0.0002067,53.2153,161.4099,48.3016,311.8153,0.00011972,1.618e-05,0.0,0 STARLINK-3190,1 49766U 21115AU  22321.83248988  .00001618  00000-0  11972-3 0  9991,2 49766  53.2153 161.4099 0002067  48.3016 311.8153 15.08843519 53330,6917.87,95.437,541.165,538.305,0.0
49766.0,STARLINK-3190,PAYLOAD,2022-11-18 13:28:01,15.08847252,0.0002099,53.2153,158.1392,47.6385,312.4784,0.00013625,1.881e-05,0.0,0 STARLINK-3190,1 49766U 21115AU  22322.56112713  .00001881  00000-0  13625-3 0  9997,2 49766  53.2153 158.1392 0002099  47.6385 312.4784 15.08847252 54555,6917.858,95.437,541.175,538.271,0.0
49766.0,STARLINK-3190,PAYLOAD,2022-11-18 19:49:34,15.08843628,0.0002109,53.2151,156.9499,48.2555,311.8618,0.00020725,3.012e-05,0.0,0 STARLINK-3190,1 49766U 21115AU  22322.82608836  .00003012  00000-0  20725-3 0  9999,2 49766  53.2151 156.9499 0002109  48.2555 311.8618 15.08843628 53488,6917.869000000002,95.437,541.193,538.275,0.0
49766.0,STARLINK-3190,PAYLOAD,2022-11-19 03:46:29,15.08839603,0.0002111,53.215,155.463,49.028,311.0895,0.00012111,1.64e-05,0.0,0 STARLINK-3190,1 49766U 21115AU  22323.15729092  .00001640  00000-0  12111-3 0  9999,2 49766  53.2150 155.4630 0002111  49.0280 311.0895 15.08839603 54641,6917.882,95.438,541.207,538.286,0.0
49766.0,STARLINK-3190,PAYLOAD,2022-11-19 13:18:49,15.08833998,0.0002131,53.216,153.6803,54.4796,305.6395,-1.4021e-06,-3.11e-06,0.0,0 STARLINK-3190,1 49766U 21115AU  22323.55473517 -.00000311  00000-0 -14021-5 0  9991,2 49766  53.2160 153.6803 0002131  54.4796 305.6395 15.08833998 54700,6917.899,95.438,541.238,538.29,0.0
49766.0,STARLINK-3190,PAYLOAD,2022-11-20 13:09:35,15.08843112,0.0002164,53.2157,149.2183,50.5725,309.5458,7.0724e-05,8.38e-06,0.0,0 STARLINK-3190,1 49766U 21115AU  22324.54833246  .00000838  00000-0  70724-4 0  9993,2 49766  53.2157 149.2183 0002164  50.5725 309.5458 15.08843112 53748,6917.871,95.437,541.2330000000002,538.239,0.0
